[{"OBJECT_NAME":"APRIZESAT 9","OBJECT_ID":"2014-033J","EPOCH":"2026-03-09T21:41:56.274720","MEAN_MOTION":14.74074549,"ECCENTRICITY":0.00668309,"INCLINATION":97.8881,"RA_OF_ASC_NODE":204.6298,"ARG_OF_PERICENTER":158.5228,"MEAN_ANOMALY":201.8809,"EPHEMERIS_TYPE":0,"CLASSIFICATION_TYPE":"U","NORAD_CAT_ID":40018,"ELEMENT_SET_NO":999,"REV_AT_EPOCH":62893,"BSTAR":0.0001991333,"MEAN_MOTION_DOT":1.306e-5,"MEAN_MOTION_DDOT":0},{"OBJECT_NAME":"SL-14 R\/B","OBJECT_ID":"1988-056B","EPOCH":"2026-03-09T22:09:02.841984","MEAN_MOTION":14.85107061,"ECCENTRICITY":0.00200259,"INCLINATION":82.5135,"RA_OF_ASC_NODE":224.3406,"ARG_OF_PERICENTER":136.9307,"MEAN_ANOMALY":223.348,"EPHEMERIS_TYPE":0,"CLASSIFICATION_TYPE":"U","NORAD_CAT_ID":19275,"ELEMENT_SET_NO":999,"REV_AT_EPOCH":1470,"BSTAR":8.8660519e-5,"MEAN_MOTION_DOT":7.85e-6,"MEAN_MOTION_DDOT":0}]
